STARLINK-1036
1 44741U 19074AE  26090.91671296  .00172901  00000+0  20242-2 0  9990
2 44741  53.0463  80.5835 0005209  41.1459 218.5890 15.60470964  5978
STARLINK-2582
1 48460U 21040AJ  26090.83335647  .00185743  00000+0  21717-2 0  9992
2 48460  53.0568  22.9538 0004643 107.5587 272.3147 15.60461748  5834
